COSMOS 2251 DEB         
1 40218U 93036BUX 26054.50641051  .00000903  00000+0  28393-3 0  9994
2 40218  74.0313 113.9714 0016440 191.9106 168.1664 14.41801815599102
COSMOS 2251 DEB         
1 40223U 93036BVC 26064.58923632  .00115667  00000+0  59612-2 0  9998
2 40223  73.9322 276.8454 0010988 107.5903 284.4581 15.15743553606245
COSMOS 2251 DEB         
1 40228U 93036BVH 26049.21964243  .00000891  00000+0  28362-3 0  9990
2 40228  74.0556 135.7744 0023166 187.3053 204.0160 14.41164378598937
COSMOS 2251 DEB         
1 40230U 93036BVK 26052.81290572  .00001871  00000+0  49131-3 0  9996
2 40230  74.0433  93.5910 0015987 141.4165 336.7380 14.49812998600013
COSMOS 2251 DEB         
1 40233U 93036BVN 26062.72297870  .00005661  00000+0  11842-2 0  9996
2 40233  73.9399 307.9303 0044267   2.4271 357.7099 14.59412531603181
COSMOS 2251 DEB         
1 40236U 93036BVR 26064.18717542  .00000714  00000+0  78569-3 0  9998
2 40236  73.5409  13.7745 0537634 246.6236 107.7448 13.24823576547164
COSMOS 2251 DEB         
1 40238U 93036BVT 26044.13229605  .00001001  00000+0  10336-2 0  9998
2 40238  73.9903 327.7425 0551316 287.7885  66.3802 13.25406926548635
COSMOS 2251 DEB         
1 40239U 93036BVU 26036.10886377  .00002921  00000+0  55491-3 0  9996
2 40239  74.0297 171.6906 0086909 270.6387 268.1502 14.62250063604052
COSMOS 2251 DEB         
1 40792U 93036BVV 26059.54109550  .00005127  00000+0  88444-3 0  9999
2 40792  74.0421 257.1398 0016871 337.6218  53.0139 14.68650337643265
COSMOS 2251 DEB         
1 40794U 93036BVX 26058.11557028  .00039980  00000+0  31466-2 0  9995
2 40794  73.9694 329.1878 0007796 113.5437 312.9579 15.00605669630671
COSMOS 2251 DEB         
1 40796U 93036BVZ 26064.03890022  .00008840  00000+0  10637-2 0  9997
2 40796  74.0151 339.2252 0052428  96.1915 281.2414 14.83036639773781
COSMOS 2251 DEB         
1 40799U 93036BWC 26060.33747159  .00005616  00000+0  42095-3 0  9993
2 40799  73.9260 298.2127 0116266 162.8882 197.6278 14.97612795511532
COSMOS 2251 DEB         
1 40802U 93036BWF 26059.51441604  .00005549  00000+0  74157-3 0  9991
2 40802  74.0429   0.3071 0059311  78.6830 282.1002 14.78520475655581
COSMOS 2251 DEB         
1 40803U 93036BWG 26064.94108020  .00001314  00000+0  32957-3 0  9995
2 40803  74.0098 254.9550 0032066  90.7107 269.7729 14.52057278599608
COSMOS 2251 DEB         
1 40808U 93036BWM 26065.21450591  .00009993  00000+0  16977-2 0  9998
2 40808  74.0459 344.1063 0007454 344.8112 165.9263 14.69227651648446
COSMOS 2251 DEB         
1 40810U 93036BWP 26064.56842906  .00003554  00000+0  75561-3 0  9995
2 40810  74.0336 276.9195 0017211  42.6273 317.6224 14.59347708628912
